COSMO-SKYMED 1          
1 31598U 07023A   26194.20041661  .00001320  00000+0  11927-3 0  9998
2 31598  97.8844  26.2763 0001255 103.1254 257.0107 14.97213619 33688
COSMOS 2428             
1 31792U 07029A   26193.70101042  .00000189  00000+0  12720-3 0  9998
2 31792  70.9382 300.9081 0007200  86.1006 274.0938 14.12932980981756
SL-16 R/B               
1 31793U 07029B   26194.19134206  .00000083  00000+0  67777-4 0  9997
2 31793  70.9746 268.5653 0002010 256.2386 132.7213 14.14851052983121
KORONAS-FOTON           
1 33504U 09003A   26193.96873282  .00008913  00000+0  17982-3 0  9993
2 33504  82.4300 145.3551 0012324  69.0664 291.1902 15.46264563965085
CZ-2C R/B               
1 37731U 11030B   26193.83513021  .00000555  00000+0  76197-4 0  9998
2 37731  97.8668 148.7614 0050927 304.0441  83.9286 14.81529839808627
H-2A R/B                
1 38341U 12025E   26193.97849247  .00000655  00000+0  63909-4 0  9996
2 38341  98.4848 171.2548 0042372 262.6189  97.0213 14.95834714766942
SHIJIAN-16 (SJ-16)      
1 39358U 13057A   26194.24551067  .00000665  00000+0  67252-4 0  9998
2 39358  74.9738 307.3267 0015851 169.5801 190.5719 14.92667693690231
SL-4 R/B                
1 39679U 14021B   26193.91861971  .00007119  00000+0  14899-3 0  9996
2 39679  51.6063  84.6655 0089796 200.0922 159.6520 15.42452959675580
ALOS-2                  
1 39766U 14029A   26194.24545178  .00001049  00000+0  14729-3 0  9994
2 39766  97.9229 291.0365 0001600  93.6844 266.4550 14.79472249655438
YAOGAN-29               
1 41038U 15069A   26194.22030787 -.00000220  00000+0 -20419-4 0  9993
2 41038  98.0025 222.8927 0000904  12.9833 347.1403 14.83103521574481
ASTRO-H (HITOMI)        
1 41337U 16012A   26193.47426961  .00001447  00000+0  79686-4 0  9993
2 41337  30.9988 270.8641 0009604 147.9668 212.1556 15.10625525571114
HXMT (HUIYAN)           
1 42758U 17034A   26194.04951128  .00002729  00000+0  13906-3 0  9994
2 42758  43.0152  39.0112 0032503 307.6003  52.1896 15.18678216501597
SAOCOM 1A               
1 43641U 18076A   26194.19510826 -.00000212  00000+0 -20104-4 0  9991
2 43641  97.8885  20.5659 0001436  84.1314 276.0062 14.82144494419959
H-2A R/B                
1 43682U 18084L   26194.15285543  .00013747  00000+0  28042-3 0  9999
2 43682  98.8540  78.7338 0020701 308.1441  51.7937 15.46149333425132
SAOCOM 1B               
1 46265U 20059A   26194.15881370  .00000566  00000+0  77681-4 0  9993
2 46265  97.8889  19.6266 0001589  81.4303 278.7090 14.82159024317332
CSS (TIANHE)            
1 48274U 21035A   26193.33050829  .00000806  00000+0  14701-4 0  9997
2 48274  41.4686 169.1964 0002428 290.9815  69.0763 15.58035041297092
COSMOS 2550             
1 48865U 21056A   26194.10738836  .00000585  00000+0  23631-4 0  9999
2 48865  67.1408  21.4988 0008474 270.8800  89.1383 15.33813154282692
CZ-2C R/B               
1 52794U 22058K   26193.94606983  .00034864  00000+0  36103-3 0  9990
2 52794  50.1858  29.2996 0030466  13.2357 346.9410 15.63734509229679
CZ-2C R/B               
1 54039U 22132E   26193.97820926  .00056455  00000+0  38268-3 0  9999
2 54039  97.2889 202.2142 0009847 352.5002   7.6114 15.74769502210002
GSLV R/B                
1 54149U 22138AN  26193.84782632  .00001371  00000+0  11490-3 0  9999
2 54149  87.3818 124.3676 0023763  59.8916 300.4667 14.97376477202654
XRISM                   
1 57800U 23137A   26193.99281291  .00002179  00000+0  11607-3 0  9994
2 57800  31.0006 192.4157 0007831 224.7001 135.3007 15.12660454156775
ACS3                    
1 59588U 24077B   26192.74048558  .00010248  00000+0  71307-2 0  9990
2 59588  97.1723 106.0854 0121011  40.7850 320.2298 13.95349463111466
SPACEMOBILE-003         
1 61045U 24163A   26193.12443383  .00000008  00000+0  15017-4 0  9996
2 61045  52.9645 194.7701 0003953 176.8899 183.2120 15.20757146101564
SPACEMOBILE-005         
1 61046U 24163B   26194.09371225  .00000320  00000+0  29081-4 0  9992
2 61046  52.9756 190.2542 0008516 188.4778 171.6074 15.20746160101706
SPACEMOBILE-001         
1 61047U 24163C   26192.44911905  .00000309  00000+0  28551-4 0  9993
2 61047  52.9736 197.5273 0007475 183.3179 176.7767 15.20792937101458
SPACEMOBILE-002         
1 61048U 24163D   26194.07601240  .00013464  00000+0  61597-3 0  9995
2 61048  52.9787 190.0866 0006379 191.8159 168.2686 15.20818301101703
SPACEMOBILE-004         
1 61049U 24163E   26193.00710093  .00011603  00000+0  53337-3 0  9991
2 61049  52.9667 194.7854 0006095 215.6608 144.3979 15.20795354101542
CZ-8A R/B               
1 66004U 25231K   26193.69598807 -.00000097  00000+0  23889-4 0  9992
2 66004  50.0046 290.7917 0116548 313.8139  45.3185 14.30161741 38590
SZ-21 MODULE            
1 66515U 25246C   26193.91838157  .00043014  00000+0  23891-3 0  9992
2 66515  41.4700 146.7964 0007779 205.2100 154.8367 15.78652870 37809
SPACEMOBILE-006         
1 67232U 25309A   26194.10492244  .00000410  00000+0  34917-4 0  9999
2 67232  52.9935 212.9104 0010285 208.4415 151.6019 15.18650428 30538
