OBJECT_NAME,OBJECT_ID,EPOCH,MEAN_MOTION,ECCENTRICITY,INCLINATION,RA_OF_ASC_NODE,ARG_OF_PERICENTER,MEAN_ANOMALY,EPHEMERIS_TYPE,CLASSIFICATION_TYPE,NORAD_CAT_ID,ELEMENT_SET_NO,REV_AT_EPOCH,BSTAR,MEAN_MOTION_DOT,MEAN_MOTION_DDOT
COSMO-SKYMED 1,2007-023A,2026-07-13T04:48:35.995104,14.97213619,.0001255,97.8844,26.2763,103.1254,257.0107,0,U,31598,999,3368,.11927E-3,.132E-4,0
COSMOS 2428,2007-029A,2026-07-12T16:49:27.300288,14.12932980,.00072,70.9382,300.9081,86.1006,274.0938,0,U,31792,999,98175,.1272E-3,.189E-5,0
SL-16 R/B,2007-029B,2026-07-13T04:35:31.953984,14.14851052,.000201,70.9746,268.5653,256.2386,132.7213,0,U,31793,999,98312,.67777E-4,.83E-6,0
KORONAS-FOTON,2009-003A,2026-07-12T23:14:58.515648,15.46264563,.0012324,82.4300,145.3551,69.0664,291.1902,0,U,33504,999,96508,.17982E-3,.8913E-4,0
CZ-2C R/B,2011-030B,2026-07-12T20:02:35.250144,14.81529839,.0050927,97.8668,148.7614,304.0441,83.9286,0,U,37731,999,80862,.76197E-4,.555E-5,0
H-2A R/B,2012-025E,2026-07-12T23:29:01.749408,14.95834714,.0042372,98.4848,171.2548,262.6189,97.0213,0,U,38341,999,76694,.63909E-4,.655E-5,0
SHIJIAN-16 (SJ-16),2013-057A,2026-07-13T05:53:32.121888,14.92667693,.0015851,74.9738,307.3267,169.5801,190.5719,0,U,39358,999,69023,.67252E-4,.665E-5,0
SL-4 R/B,2014-021B,2026-07-12T22:02:48.742944,15.42452959,.0089796,51.6063,84.6655,200.0922,159.6520,0,U,39679,999,67558,.14899E-3,.7119E-4,0
ALOS-2,2014-029A,2026-07-13T05:53:27.033792,14.79472249,.00016,97.9229,291.0365,93.6844,266.4550,0,U,39766,999,65543,.14729E-3,.1049E-4,0
YAOGAN-29,2015-069A,2026-07-13T05:17:14.599968,14.83103521,.0000904,98.0025,222.8927,12.9833,347.1403,0,U,41038,999,57448,-.20419E-4,-.22E-5,0
ASTRO-H (HITOMI),2016-012A,2026-07-12T11:22:56.894304,15.10625525,.00096044,30.9988,270.8641,147.9668,212.1556,0,U,41337,999,57111,.79685641E-4,.1447E-4,0
HXMT (HUIYAN),2017-034A,2026-07-13T01:11:17.774592,15.18678216,.0032503,43.0152,39.0112,307.6003,52.1896,0,U,42758,999,50159,.13906E-3,.2729E-4,0
SAOCOM 1A,2018-076A,2026-07-13T04:40:57.353664,14.82144494,.0001436,97.8885,20.5659,84.1314,276.0062,0,U,43641,999,41995,-.20104E-4,-.212E-5,0
H-2A R/B,2018-084L,2026-07-13T03:40:06.709152,15.46149333,.0020701,98.8540,78.7338,308.1441,51.7937,0,U,43682,999,42513,.28042E-3,.13747E-3,0
SAOCOM 1B,2020-059A,2026-07-13T03:48:41.503680,14.82159024,.0001589,97.8889,19.6266,81.4303,278.7090,0,U,46265,999,31733,.77681E-4,.566E-5,0
CSS (TIANHE),2021-035A,2026-07-12T07:55:55.916256,15.58035041,.00024282,41.4686,169.1964,290.9815,69.0763,0,U,48274,999,29709,.14700842E-4,.806E-5,0
COSMOS 2550,2021-056A,2026-07-13T02:34:38.354304,15.33813154,.0008474,67.1408,21.4988,270.8800,89.1383,0,U,48865,999,28269,.23631E-4,.585E-5,0
CZ-2C R/B,2022-058K,2026-07-12T22:42:20.433312,15.63734509,.0030466,50.1858,29.2996,13.2357,346.9410,0,U,52794,999,22967,.36103E-3,.34864E-3,0
CZ-2C R/B,2022-132E,2026-07-12T23:28:37.280064,15.74769502,.0009847,97.2889,202.2142,352.5002,7.6114,0,U,54039,999,21000,.38268E-3,.56455E-3,0
GSLV R/B,2022-138AN,2026-07-12T20:20:52.194048,14.97376477,.0023763,87.3818,124.3676,59.8916,300.4667,0,U,54149,999,20265,.1149E-3,.1371E-4,0
XRISM,2023-137A,2026-07-12T23:49:39.035424,15.12660454,.0007831,31.0006,192.4157,224.7001,135.3007,0,U,57800,999,15677,.11607E-3,.2179E-4,0
ACS3,2024-077B,2026-07-11T17:46:17.954112,13.95349463,.01210111,97.1723,106.0854,40.7850,320.2298,0,U,59588,999,11146,.713075E-2,.10248E-3,0
SPACEMOBILE-003,2024-163A,2026-07-12T02:59:11.082912,15.20757146,.00039532,52.9645,194.7701,176.8899,183.2120,0,U,61045,999,10156,.15017438E-4,.8E-7,0
SPACEMOBILE-005,2024-163B,2026-07-13T02:14:56.738400,15.20746160,.0008516,52.9756,190.2542,188.4778,171.6074,0,U,61046,999,10170,.29081E-4,.32E-5,0
SPACEMOBILE-001,2024-163C,2026-07-11T10:46:43.885920,15.20792937,.00074751,52.9736,197.5273,183.3179,176.7767,0,U,61047,999,10145,.28550562E-4,.309E-5,0
SPACEMOBILE-002,2024-163D,2026-07-13T01:49:27.471360,15.20818301,.0006379,52.9787,190.0866,191.8159,168.2686,0,U,61048,999,10170,.61597E-3,.13464E-3,0
SPACEMOBILE-004,2024-163E,2026-07-12T00:10:13.520352,15.20795354,.00060954,52.9667,194.7854,215.6608,144.3979,0,U,61049,999,10154,.5333705E-3,.11603E-3,0
CZ-8A R/B,2025-231K,2026-07-12T16:42:13.369248,14.30161741,.0116548,50.0046,290.7917,313.8139,45.3185,0,U,66004,999,3859,.23889E-4,-.97E-6,0
SZ-21 MODULE,2025-246C,2026-07-12T22:02:28.167648,15.78652870,.0007779,41.4700,146.7964,205.2100,154.8367,0,U,66515,999,3780,.23891E-3,.43014E-3,0
SPACEMOBILE-006,2025-309A,2026-07-13T02:31:05.298816,15.18650428,.0010285,52.9935,212.9104,208.4415,151.6019,0,U,67232,999,3053,.34917E-4,.41E-5,0
